{"type": "FeatureCollection", "features": [ {"type": "Feature", "properties": {"norad_id": 28649, "name": "IRS-P5 (CARTOSAT-1)", "group": "resource", "lat": -50.994972165596614, "lon": 28.54306689835518, "alt_km": 603.652875874327, "timestamp": "2025-12-18T23:35:48.703600+00:00", "meta": {"OBJECT_NAME": "IRS-P5 (CARTOSAT-1)", "OBJECT_ID": "2005-017A", "EPOCH": "2025-12-18T14:09:37.399680", "MEAN_MOTION": 14.90423944, "ECCENTRICITY": 8.752e-05, "INCLINATION": 97.5488, "RA_OF_ASC_NODE": 18.7439, "ARG_OF_PERICENTER": 47.7266, "MEAN_ANOMALY": 312.4027, "EPHEMERIS_TYPE": 0, "CLASSIFICATION_TYPE": "U", "NORAD_CAT_ID": 28649, "ELEMENT_SET_NO": 999, "REV_AT_EPOCH": 11691, "BSTAR": 0.00012227612, "MEAN_MOTION_DOT": 1.139e-05, "MEAN_MOTION_DDOT": 0}, "tle": {"line1": "1 28649U 05017A   25352.59001620  .00001139  00000+0  12228-3 0  9993", "line2": "2 28649  97.5488  18.7439 0000875  47.7266 312.4027 14.90423944116913"}}, "geometry": {"type": "Point", "coordinates": [28.54306689835518, -50.994972165596614]}}, {"type": "Feature", "properties": {"norad_id": 28893, "name": "SINAH 1", "group": "resource", "lat": 66.93227151303401, "lon": 101.61094389213773, "alt_km": 666.7991430260327, "timestamp": "2025-12-18T23:35:48.703611+00:00", "meta": {"OBJECT_NAME": "SINAH 1", "OBJECT_ID": "2005-043D", "EPOCH": "2025-12-18T13:26:36.852864", "MEAN_MOTION": 14.63968613, "ECCENTRICITY": 0.00155815, "INCLINATION": 98.2607, "RA_OF_ASC_NODE": 121.133, "ARG_OF_PERICENTER": 119.9131, "MEAN_ANOMALY": 240.3621, "EPHEMERIS_TYPE": 0, "CLASSIFICATION_TYPE": "U", "NORAD_CAT_ID": 28893, "ELEMENT_SET_NO": 999, "REV_AT_EPOCH": 7409, "BSTAR": 7.501753e-05, "MEAN_MOTION_DOT": 3.44e-06, "MEAN_MOTION_DDOT": 0}, "tle": {"line1": "1 28893U 05043D   25352.56014876  .00000344  00000+0  75018-4 0  9991", "line2": "2 28893  98.2607 121.1330 0015581 119.9131 240.3621 14.63968613 74095"}}, "geometry": {"type": "Point", "coordinates": [101.61094389213773, 66.93227151303401]}}, {"type": "Feature", "properties": {"norad_id": 29079, "name": "EROS B", "group": "resource", "lat": -76.9188143676646, "lon": 143.5911574305174, "alt_km": 363.7159804685389, "timestamp": "2025-12-18T23:35:48.703621+00:00", "meta": {"OBJECT_NAME": "EROS B", "OBJECT_ID": "2006-014A", "EPOCH": "2025-12-18T14:45:22.266720", "MEAN_MOTION": 15.70099441, "ECCENTRICITY": 0.00032206, "INCLINATION": 97.3463, "RA_OF_ASC_NODE": 109.4764, "ARG_OF_PERICENTER": 311.4371, "MEAN_ANOMALY": 48.6614, "EPHEMERIS_TYPE": 0, "CLASSIFICATION_TYPE": "U", "NORAD_CAT_ID": 29079, "ELEMENT_SET_NO": 999, "REV_AT_EPOCH": 9172, "BSTAR": 0.0012837795, "MEAN_MOTION_DOT": 0.00157231, "MEAN_MOTION_DDOT": 0}, "tle": {"line1": "1 29079U 06014A   25352.61484105  .00157231  00000+0  12838-2 0  9996", "line2": "2 29079  97.3463 109.4764 0003220 311.4371  48.6614 15.70099441 91727"}}, "geometry": {"type": "Point", "coordinates": [143.5911574305174, -76.9188143676646]}}, {"type": "Feature", "properties": {"norad_id": 29228, "name": "RESURS-DK 1", "group": "resource", "lat": 5.138860480888525, "lon": 87.5875254627022, "alt_km": 532.9919879942026, "timestamp": "2025-12-18T23:35:48.703633+00:00", "meta": {"OBJECT_NAME": "RESURS-DK 1", "OBJECT_ID": "2006-021A", "EPOCH": "2025-12-18T14:02:50.691552", "MEAN_MOTION": 15.12192765, "ECCENTRICITY": 0.00069129, "INCLINATION": 69.9338, "RA_OF_ASC_NODE": 86.7315, "ARG_OF_PERICENTER": 254.7402, "MEAN_ANOMALY": 105.2999, "EPHEMERIS_TYPE": 0, "CLASSIFICATION_TYPE": "U", "NORAD_CAT_ID": 29228, "ELEMENT_SET_NO": 999, "REV_AT_EPOCH": 7526, "BSTAR": 0.00012681973, "MEAN_MOTION_DOT": 2.088e-05, "MEAN_MOTION_DDOT": 0}, "tle": {"line1": "1 29228U 06021A   25352.58530893  .00002088  00000+0  12682-3 0  9999", "line2": "2 29228  69.9338  86.7315 0006912 254.7402 105.2999 15.12192765 75269"}}, "geometry": {"type": "Point", "coordinates": [87.5875254627022, 5.138860480888525]}}, {"type": "Feature", "properties": {"norad_id": 29268, "name": "ARIRANG-2 (KOMPSAT-2)", "group": "resource", "lat": -14.137772781197961, "lon": -176.86367174255332, "alt_km": 678.3485800926674, "timestamp": "2025-12-18T23:35:48.703643+00:00", "meta": {"OBJECT_NAME": "ARIRANG-2 (KOMPSAT-2)", "OBJECT_ID": "2006-031A", "EPOCH": "2025-12-18T15:48:11.284416", "MEAN_MOTION": 14.64499422, "ECCENTRICITY": 0.00132603, "INCLINATION": 97.8255, "RA_OF_ASC_NODE": 180.8424, "ARG_OF_PERICENTER": 288.9413, "MEAN_ANOMALY": 145.7195, "EPHEMERIS_TYPE": 0, "CLASSIFICATION_TYPE": "U", "NORAD_CAT_ID": 29268, "ELEMENT_SET_NO": 999, "REV_AT_EPOCH": 3505, "BSTAR": 8.7265357e-05, "MEAN_MOTION_DOT": 4.18e-06, "MEAN_MOTION_DDOT": 0}, "tle": {"line1": "1 29268U 06031A   25352.65846394  .00000418  00000+0  87265-4 0  9993", "line2": "2 29268  97.8255 180.8424 0013260 288.9413 145.7195 14.64499422 35059"}}, "geometry": {"type": "Point", "coordinates": [-176.86367174255332, -14.137772781197961]}}, {"type": "Feature", "properties": {"norad_id": 29709, "name": "LAPAN-TUBSAT", "group": "resource", "lat": 35.255287972491345, "lon": -22.527729600522672, "alt_km": 600.2064933092679, "timestamp": "2025-12-18T23:35:48.703655+00:00", "meta": {"OBJECT_NAME": "LAPAN-TUBSAT", "OBJECT_ID": "2007-001A", "EPOCH": "2025-12-18T13:44:19.483008", "MEAN_MOTION": 14.85677935, "ECCENTRICITY": 0.00135218, "INCLINATION": 98.1253, "RA_OF_ASC_NODE": 342.8492, "ARG_OF_PERICENTER": 56.6627, "MEAN_ANOMALY": 303.588, "EPHEMERIS_TYPE": 0, "CLASSIFICATION_TYPE": "U", "NORAD_CAT_ID": 29709, "ELEMENT_SET_NO": 999, "REV_AT_EPOCH": 2433, "BSTAR": 1.170622e-05, "MEAN_MOTION_DOT": 4.4e-07, "MEAN_MOTION_DDOT": 0}, "tle": {"line1": "1 29709U 07001A   25352.57244772  .00000044  00000+0  11706-4 0  9996", "line2": "2 29709  98.1253 342.8492 0013521  56.6627 303.5880 14.85677935 24337"}}, "geometry": {"type": "Point", "coordinates": [-22.527729600522672, 35.255287972491345]}}, {"type": "Feature", "properties": {"norad_id": 31113, "name": "HAIYANG-1B", "group": "resource", "lat": 45.98373805590671, "lon": 165.726983722009, "alt_km": 788.3852544213014, "timestamp": "2025-12-18T23:35:48.703665+00:00", "meta": {"OBJECT_NAME": "HAIYANG-1B", "OBJECT_ID": "2007-010A", "EPOCH": "2025-12-18T11:13:47.656416", "MEAN_MOTION": 14.30967022, "ECCENTRICITY": 0.00139926, "INCLINATION": 98.3318, "RA_OF_ASC_NODE": 336.5095, "ARG_OF_PERICENTER": 21.8094, "MEAN_ANOMALY": 338.3682, "EPHEMERIS_TYPE": 0, "CLASSIFICATION_TYPE": "U", "NORAD_CAT_ID": 31113, "ELEMENT_SET_NO": 999, "REV_AT_EPOCH": 97478, "BSTAR": 5.0455917e-05, "MEAN_MOTION_DOT": 9.1e-07, "MEAN_MOTION_DDOT": 0}, "tle": {"line1": "1 31113U 07010A   25352.46791269  .00000091  00000+0  50456-4 0  9991", "line2": "2 31113  98.3318 336.5095 0013992  21.8094 338.3682 14.30967022974784"}}, "geometry": {"type": "Point", "coordinates": [165.726983722009, 45.98373805590671]}}, {"type": "Feature", "properties": {"norad_id": 31598, "name": "COSMO-SKYMED 1", "group": "resource", "lat": -38.4231889021326, "lon": -7.8873787957269395, "alt_km": 587.0733994892225, "timestamp": "2025-12-18T23:35:48.703676+00:00", "meta": {"OBJECT_NAME": "COSMO-SKYMED 1", "OBJECT_ID": "2007-023A", "EPOCH": "2025-12-18T14:35:40.575264", "MEAN_MOTION": 14.95810351, "ECCENTRICITY": 0.00015749, "INCLINATION": 97.8835, "RA_OF_ASC_NODE": 178.0456, "ARG_OF_PERICENTER": 86.8865, "MEAN_ANOMALY": 273.2535, "EPHEMERIS_TYPE": 0, "CLASSIFICATION_TYPE": "U", "NORAD_CAT_ID": 31598, "ELEMENT_SET_NO": 999, "REV_AT_EPOCH": 278, "BSTAR": 0.00031082283, "MEAN_MOTION_DOT": 3.41e-05, "MEAN_MOTION_DDOT": 0}, "tle": {"line1": "1 31598U 07023A   25352.60810851  .00003410  00000+0  31082-3 0  9998", "line2": "2 31598  97.8835 178.0456 0001574  86.8865 273.2535 14.95810351  2788"}}, "geometry": {"type": "Point", "coordinates": [-7.8873787957269395, -38.4231889021326]}}, {"type": "Feature", "properties": {"norad_id": 31698, "name": "TERRASAR-X", "group": "resource", "lat": 38.18019502527162, "lon": -7.629554716233951, "alt_km": 504.85245898635185, "timestamp": "2025-12-18T23:35:48.703695+00:00", "meta": {"OBJECT_NAME": "TERRASAR-X", "OBJECT_ID": "2007-026A", "EPOCH": "2025-12-18T12:21:42.553440", "MEAN_MOTION": 15.19151199, "ECCENTRICITY": 0.00018406, "INCLINATION": 97.4454, "RA_OF_ASC_NODE": 357.8116, "ARG_OF_PERICENTER": 91.5233, "MEAN_ANOMALY": 268.6213, "EPHEMERIS_TYPE": 0, "CLASSIFICATION_TYPE": "U", "NORAD_CAT_ID": 31698, "ELEMENT_SET_NO": 999, "REV_AT_EPOCH": 2579, "BSTAR": 3.8823467e-05, "MEAN_MOTION_DOT": 7.48e-06, "MEAN_MOTION_DDOT": 0}, "tle": {"line1": "1 31698U 07026A   25352.51507585  .00000748  00000+0  38823-4 0  9991", "line2": "2 31698  97.4454 357.8116 0001840  91.5233 268.6213 15.19151199 25792"}}, "geometry": {"type": "Point", "coordinates": [-7.629554716233951, 38.18019502527162]}}, {"type": "Feature", "properties": {"norad_id": 32060, "name": "WORLDVIEW-1 (WV-1)", "group": "resource", "lat": 14.271446344426574, "lon": -67.7332419155606, "alt_km": 492.0799716778756, "timestamp": "2025-12-18T23:35:48.703718+00:00", "meta": {"OBJECT_NAME": "WORLDVIEW-1 (WV-1)", "OBJECT_ID": "2007-041A", "EPOCH": "2025-12-18T07:07:24.333888", "MEAN_MOTION": 15.24779912, "ECCENTRICITY": 9.076e-05, "INCLINATION": 97.3839, "RA_OF_ASC_NODE": 109.6997, "ARG_OF_PERICENTER": 117.1152, "MEAN_ANOMALY": 243.0178, "EPHEMERIS_TYPE": 0, "CLASSIFICATION_TYPE": "U", "NORAD_CAT_ID": 32060, "ELEMENT_SET_NO": 999, "REV_AT_EPOCH": 1532, "BSTAR": 0.00030222175, "MEAN_MOTION_DOT": 7.422e-05, "MEAN_MOTION_DDOT": 0}, "tle": {"line1": "1 32060U 07041A   25352.29680942  .00007422  00000+0  30222-3 0  9996", "line2": "2 32060  97.3839 109.6997 0000907 117.1152 243.0178 15.24779912 15320"}}, "geometry": {"type": "Point", "coordinates": [-67.7332419155606, 14.271446344426574]}}]}